start=new Date('2022-08-11T00:00:00.000Z').valueOf();
sats=[{"LAUNCH_DATE":"2020-11-25","NORAD_CAT_ID":"47137","EPHEMERIS_TYPE":"0","COUNTRY_CODE":"US","DECAY_DATE":null,"APOAPSIS":"548.260","GP_ID":"209996207","ECCENTRICITY":"0.00014850","ELEMENT_SET_NO":"999","TIME_SYSTEM":"UTC","INCLINATION":"53.0563","ARG_OF_PERICENTER":"84.1395","FILE":"3533963","BSTAR":"-0.00008470600000","REV_AT_EPOCH":"9500","MEAN_ANOMALY":"275.9764","OBJECT_TYPE":"PAYLOAD","EPOCH":"2022-08-10T19:48:19.479744","PERIAPSIS":"546.203","SITE":"AFETR","REF_FRAME":"TEME","RCS_SIZE":"LARGE","MEAN_ELEMENT_THEORY":"SGP4","CLASSIFICATION_TYPE":"U","OBJECT_NAME":"STARLINK-1849","TLE_LINE2":"2 47137  53.0563  38.3624 0001485  84.1395 275.9764 15.06394160 95009","OBJECT_ID":"2020-088R","PERIOD":"95.593","MEAN_MOTION_DDOT":"0.0000000000000","TLE_LINE1":"1 47137U 20088R   22222.82522546 -.00001543  00000-0 -84706-4 0  9998","CENTER_NAME":"EARTH","RA_OF_ASC_NODE":"38.3624","SEMIMAJOR_AXIS":"6925.366","MEAN_MOTION_DOT":"-0.00001543","MEAN_MOTION":"15.06394160"},{"SEMIMAJOR_AXIS":"6925.400","MEAN_MOTION_DOT":"-0.00003082","MEAN_MOTION":"15.06383063","PERIOD":"95.593","OBJECT_ID":"2020-088S","MEAN_MOTION_DDOT":"0.0000000000000","TLE_LINE1":"1 47138U 20088S   22222.62391783 -.00003082  00000-0 -18816-3 0  9992","RA_OF_ASC_NODE":"44.5875","CENTER_NAME":"EARTH","CLASSIFICATION_TYPE":"U","TLE_LINE2":"2 47138  53.0547  44.5875 0001641  75.0112 285.1058 15.06383063 94906","OBJECT_NAME":"STARLINK-1850","SITE":"AFETR","REF_FRAME":"TEME","RCS_SIZE":"LARGE","MEAN_ELEMENT_THEORY":"SGP4","EPOCH":"2022-08-10T14:58:26.500512","PERIAPSIS":"546.129","INCLINATION":"53.0547","TIME_SYSTEM":"UTC","FILE":"3533963","ARG_OF_PERICENTER":"75.0112","BSTAR":"-0.00018816000000","MEAN_ANOMALY":"285.1058","REV_AT_EPOCH":"9490","OBJECT_TYPE":"PAYLOAD","GP_ID":"209994977","ECCENTRICITY":"0.00016410","ELEMENT_SET_NO":"999","LAUNCH_DATE":"2020-11-25","NORAD_CAT_ID":"47138","EPHEMERIS_TYPE":"0","APOAPSIS":"548.402","DECAY_DATE":null,"COUNTRY_CODE":"US"},{"CLASSIFICATION_TYPE":"U","TLE_LINE2":"2 47139  53.0541  54.2350 0001378  91.2029 268.9118 15.06392633 94764","OBJECT_NAME":"STARLINK-1852","SITE":"AFETR","REF_FRAME":"TEME","RCS_SIZE":"LARGE","MEAN_ELEMENT_THEORY":"SGP4","SEMIMAJOR_AXIS":"6925.371","MEAN_MOTION_DOT":"-0.00002046","MEAN_MOTION":"15.06392633","PERIOD":"95.593","OBJECT_ID":"2020-088T","MEAN_MOTION_DDOT":"0.0000000000000","TLE_LINE1":"1 47139U 20088T   22222.67458687 -.00002046  00000-0 -11849-3 0  9993","RA_OF_ASC_NODE":"54.2350","CENTER_NAME":"EARTH","GP_ID":"209995227","ECCENTRICITY":"0.00013780","ELEMENT_SET_NO":"999","LAUNCH_DATE":"2020-11-25","NORAD_CAT_ID":"47139","EPHEMERIS_TYPE":"0","APOAPSIS":"548.190","COUNTRY_CODE":"US","DECAY_DATE":null,"EPOCH":"2022-08-10T16:11:24.305568","PERIAPSIS":"546.282","INCLINATION":"53.0541","TIME_SYSTEM":"UTC","ARG_OF_PERICENTER":"91.2029","FILE":"3533963","REV_AT_EPOCH":"9476","BSTAR":"-0.00011849000000","MEAN_ANOMALY":"268.9118","OBJECT_TYPE":"PAYLOAD"},{"ELEMENT_SET_NO":"999","ECCENTRICITY":"0.00014000","GP_ID":"209995479","DECAY_DATE":null,"COUNTRY_CODE":"US","APOAPSIS":"548.183","EPHEMERIS_TYPE":"0","NORAD_CAT_ID":"47141","LAUNCH_DATE":"2020-11-25","PERIAPSIS":"546.244","EPOCH":"2022-08-10T14:24:31.988736","OBJECT_TYPE":"PAYLOAD","BSTAR":"-0.00007066700000","REV_AT_EPOCH":"9497","MEAN_ANOMALY":"263.0862","FILE":"3533963","ARG_OF_PERICENTER":"97.0286","TIME_SYSTEM":"UTC","INCLINATION":"53.0541","OBJECT_NAME":"STARLINK-1854","TLE_LINE2":"2 47141  53.0541  39.3862 0001400  97.0286 263.0862 15.06400131 94972","CLASSIFICATION_TYPE":"U","MEAN_ELEMENT_THEORY":"SGP4","RCS_SIZE":"LARGE","REF_FRAME":"TEME","SITE":"AFETR","MEAN_MOTION":"15.06400131","SEMIMAJOR_AXIS":"6925.348","MEAN_MOTION_DOT":"-0.00001334","CENTER_NAME":"EARTH","RA_OF_ASC_NODE":"39.3862","TLE_LINE1":"1 47141U 20088V   22222.60037024 -.00001334  00000-0 -70667-4 0  9990","MEAN_MOTION_DDOT":"0.0000000000000","OBJECT_ID":"2020-088V","PERIOD":"95.592"},{"MEAN_ELEMENT_THEORY":"SGP4","RCS_SIZE":"LARGE","REF_FRAME":"TEME","SITE":"AFETR","TLE_LINE2":"2 47143  53.0550  39.1509 0001351  86.9735 273.1409 15.06386503 94976","OBJECT_NAME":"STARLINK-1856","CLASSIFICATION_TYPE":"U","RA_OF_ASC_NODE":"39.1509","CENTER_NAME":"EARTH","TLE_LINE1":"1 47143U 20088X   22222.64829542 -.00002320  00000-0 -13697-3 0  9995","MEAN_MOTION_DDOT":"0.0000000000000","PERIOD":"95.593","OBJECT_ID":"2020-088X","MEAN_MOTION":"15.06386503","SEMIMAJOR_AXIS":"6925.390","MEAN_MOTION_DOT":"-0.00002320","APOAPSIS":"548.191","DECAY_DATE":null,"COUNTRY_CODE":"US","EPHEMERIS_TYPE":"0","NORAD_CAT_ID":"47143","LAUNCH_DATE":"2020-11-25","ELEMENT_SET_NO":"999","ECCENTRICITY":"0.00013510","GP_ID":"209995708","OBJECT_TYPE":"PAYLOAD","BSTAR":"-0.00013697000000","MEAN_ANOMALY":"273.1409","REV_AT_EPOCH":"9497","FILE":"3533963","ARG_OF_PERICENTER":"86.9735","INCLINATION":"53.0550","TIME_SYSTEM":"UTC","PERIAPSIS":"546.319","EPOCH":"2022-08-10T15:33:32.724288"},{"SITE":"AFETR","REF_FRAME":"TEME","RCS_SIZE":"LARGE","MEAN_ELEMENT_THEORY":"SGP4","CLASSIFICATION_TYPE":"U","TLE_LINE2":"2 47144  53.0547  29.5138 0001621  78.1881 281.9290 15.06396205 95100","OBJECT_NAME":"STARLINK-1857","PERIOD":"95.592","OBJECT_ID":"2020-088Y","MEAN_MOTION_DDOT":"0.0000000000000","TLE_LINE1":"1 47144U 20088Y   22222.56812201 -.00000378  00000-0 -65006-5 0  9995","RA_OF_ASC_NODE":"29.5138","CENTER_NAME":"EARTH","MEAN_MOTION_DOT":"-0.00000378","SEMIMAJOR_AXIS":"6925.360","MEAN_MOTION":"15.06396205","LAUNCH_DATE":"2020-11-25","NORAD_CAT_ID":"47144","EPHEMERIS_TYPE":"0","APOAPSIS":"548.348","COUNTRY_CODE":"US","DECAY_DATE":null,"GP_ID":"209994478","ECCENTRICITY":"0.00016210","ELEMENT_SET_NO":"999","INCLINATION":"53.0547","TIME_SYSTEM":"UTC","FILE":"3533963","ARG_OF_PERICENTER":"78.1881","BSTAR":"-0.00000650060000","MEAN_ANOMALY":"281.9290","REV_AT_EPOCH":"9510","OBJECT_TYPE":"PAYLOAD","EPOCH":"2022-08-10T13:38:05.741664","PERIAPSIS":"546.103"},{"ECCENTRICITY":"0.00013190","GP_ID":"209994728","ELEMENT_SET_NO":"999","NORAD_CAT_ID":"47147","LAUNCH_DATE":"2020-11-25","COUNTRY_CODE":"US","DECAY_DATE":null,"APOAPSIS":"548.124","EPHEMERIS_TYPE":"0","EPOCH":"2022-08-10T15:48:07.835328","PERIAPSIS":"546.297","FILE":"3533963","ARG_OF_PERICENTER":"86.6724","TIME_SYSTEM":"UTC","INCLINATION":"53.0532","OBJECT_TYPE":"PAYLOAD","BSTAR":"0.00008738100000","REV_AT_EPOCH":"9484","MEAN_ANOMALY":"273.4416","OBJECT_NAME":"STARLINK-1860","TLE_LINE2":"2 47147  53.0532  49.1140 0001319  86.6724 273.4416 15.06400899 94843","CLASSIFICATION_TYPE":"U","REF_FRAME":"TEME","SITE":"AFETR","MEAN_ELEMENT_THEORY":"SGP4","RCS_SIZE":"LARGE","SEMIMAJOR_AXIS":"6925.346","MEAN_MOTION_DOT":"0.00001020","MEAN_MOTION":"15.06400899","MEAN_MOTION_DDOT":"0.0000000000000","OBJECT_ID":"2020-088AB","PERIOD":"95.592","CENTER_NAME":"EARTH","RA_OF_ASC_NODE":"49.1140","TLE_LINE1":"1 47147U 20088AB  22222.65842402  .00001020  00000-0  87381-4 0  9996"},{"ECCENTRICITY":"0.00014980","GP_ID":"209995979","ELEMENT_SET_NO":"999","NORAD_CAT_ID":"47148","LAUNCH_DATE":"2020-11-25","APOAPSIS":"548.276","DECAY_DATE":null,"COUNTRY_CODE":"US","EPHEMERIS_TYPE":"0","EPOCH":"2022-08-10T15:12:18.536832","PERIAPSIS":"546.202","FILE":"3533963","ARG_OF_PERICENTER":"77.0097","INCLINATION":"53.0526","TIME_SYSTEM":"UTC","OBJECT_TYPE":"PAYLOAD","BSTAR":"-0.00008584000000","REV_AT_EPOCH":"9497","MEAN_ANOMALY":"283.1059","TLE_LINE2":"2 47148  53.0526  39.2347 0001498  77.0097 283.1059 15.06391719 94976","OBJECT_NAME":"STARLINK-1861","CLASSIFICATION_TYPE":"U","REF_FRAME":"TEME","SITE":"AFETR","MEAN_ELEMENT_THEORY":"SGP4","RCS_SIZE":"LARGE","MEAN_MOTION_DOT":"-0.00001560","SEMIMAJOR_AXIS":"6925.374","MEAN_MOTION":"15.06391719","MEAN_MOTION_DDOT":"0.0000000000000","PERIOD":"95.593","OBJECT_ID":"2020-088AC","RA_OF_ASC_NODE":"39.2347","CENTER_NAME":"EARTH","TLE_LINE1":"1 47148U 20088AC  22222.63354788 -.00001560  00000-0 -85840-4 0  9999"},{"MEAN_MOTION":"15.06373233","SEMIMAJOR_AXIS":"6925.431","MEAN_MOTION_DOT":"0.00001026","TLE_LINE1":"1 47149U 20088AD  22222.66212693  .00001026  00000-0  87811-4 0  9996","CENTER_NAME":"EARTH","RA_OF_ASC_NODE":"49.0894","OBJECT_ID":"2020-088AD","PERIOD":"95.594","MEAN_MOTION_DDOT":"0.0000000000000","CLASSIFICATION_TYPE":"U","OBJECT_NAME":"STARLINK-1862","TLE_LINE2":"2 47149  53.0554  49.0894 0001365 108.3251 251.7887 15.06373233 95575","RCS_SIZE":"LARGE","MEAN_ELEMENT_THEORY":"SGP4","SITE":"AFETR","REF_FRAME":"TEME","PERIAPSIS":"546.350","EPOCH":"2022-08-10T15:53:27.766752","BSTAR":"0.00008781100000","REV_AT_EPOCH":"9557","MEAN_ANOMALY":"251.7887","OBJECT_TYPE":"PAYLOAD","TIME_SYSTEM":"UTC","INCLINATION":"53.0554","FILE":"3533963","ARG_OF_PERICENTER":"108.3251","ELEMENT_SET_NO":"999","GP_ID":"209996208","ECCENTRICITY":"0.00013650","EPHEMERIS_TYPE":"0","COUNTRY_CODE":"US","DECAY_DATE":null,"APOAPSIS":"548.241","LAUNCH_DATE":"2020-11-25","NORAD_CAT_ID":"47149"},{"ELEMENT_SET_NO":"999","GP_ID":"209994978","ECCENTRICITY":"0.00013970","EPHEMERIS_TYPE":"0","APOAPSIS":"548.142","COUNTRY_CODE":"US","DECAY_DATE":null,"LAUNCH_DATE":"2020-11-25","NORAD_CAT_ID":"47150","PERIAPSIS":"546.207","EPOCH":"2022-08-10T20:30:46.963872","BSTAR":"-0.00048994000000","MEAN_ANOMALY":"271.8984","REV_AT_EPOCH":"9501","OBJECT_TYPE":"PAYLOAD","INCLINATION":"53.0555","TIME_SYSTEM":"UTC","ARG_OF_PERICENTER":"88.2165","FILE":"3533963","CLASSIFICATION_TYPE":"U","TLE_LINE2":"2 47150  53.0555  38.2212 0001397  88.2165 271.8984 15.06412723 95015","OBJECT_NAME":"STARLINK-1863","RCS_SIZE":"LARGE","MEAN_ELEMENT_THEORY":"SGP4","SITE":"AFETR","REF_FRAME":"TEME","MEAN_MOTION":"15.06412723","MEAN_MOTION_DOT":"-0.00007574","SEMIMAJOR_AXIS":"6925.310","TLE_LINE1":"1 47150U 20088AE  22222.85471023 -.00007574  00000-0 -48994-3 0  9997","RA_OF_ASC_NODE":"38.2212","CENTER_NAME":"EARTH","PERIOD":"95.591","OBJECT_ID":"2020-088AE","MEAN_MOTION_DDOT":"0.0000000000000"}];
